ONEWEB-0665             
1 55825U 23029AF  24198.64640136  .00000112  00000+0  26655-3 0  9995
2 55825  87.8947  69.0842 0001997  71.1383 288.9963 13.14502547 67378
ONEWEB-0666             
1 55826U 23029AG  24198.66210636 -.00000009  00000+0 -55082-4 0  9990
2 55826  87.9193  53.8427 0001823  97.7274 262.4066 13.20772377 68687
ONEWEB-0667             
1 55827U 23029AH  24198.65578716 -.00000009  00000+0 -53939-4 0  9995
2 55827  87.9192  53.7772 0002081  78.2003 281.9363 13.20769989 68670
ONEWEB-0669             
1 55828U 23029AJ  24198.65105374 -.00000015  00000+0 -69954-4 0  9993
2 55828  87.9192  53.8157 0002382  98.4341 261.7063 13.20773309 68676
ONEWEB-0670             
1 55829U 23029AK  24198.70031172  .00000242  00000+0  61901-3 0  9997
2 55829  87.8947  69.0801 0002319  75.5885 284.5502 13.14505067 67406
ONEWEB-0671             
1 55830U 23029AL  24198.66796707 -.00000025  00000+0 -95385-4 0  9991
2 55830  87.9138  84.3711 0002121  74.4165 285.7201 13.19726460 66507
ONEWEB-0672             
1 55831U 23029AM  24198.64631627  .00001314  00000+0  32000-2 0  9992
2 55831  87.9194  53.8005 0001669  93.8526 266.2798 13.20781055 68677
ONEWEB-0673             
1 55832U 23029AN  24198.72009623  .00000022  00000+0  21613-4 0  9992
2 55832  87.9139  84.3276 0002043  72.0907 288.0448 13.19724818 66512
